EYESAT-1 (AO-27)        
1 22825U 93061C   18003.51494615 -.00000015  00000-0  11998-4 0  9994
2 22825  98.8411 336.8445 0009426 104.9793 255.2432 14.30018256265768
CUTE-1 (CO-55)          
1 27844U 03031E   18003.81267233  .00000051  00000-0  42944-4 0  9999
2 27844  98.6884  14.8853 0010654 124.1217 236.0973 14.22086555752836
CUBESAT XI-IV (CO-57)   
1 27848U 03031J   18003.86720663  .00000037  00000-0  36644-4 0  9993
2 27848  98.6973  15.2789 0010452 133.0670 227.1384 14.21694470752714
CUBESAT XI 5            
1 28895U 05043F   18003.43796584  .00000138  00000-0  35281-4 0  9997
2 28895  97.8851 161.8002 0015912 227.1676 132.8190 14.63493893649541
CUTE-1.7+APD II (CO-65) 
1 32785U 08021C   18003.84251317  .00000217  00000-0  29211-4 0  9998
2 32785  97.5542  23.8158 0012146 218.2917 141.7439 14.88040043524732
COMPASS-1               
1 32787U 08021E   18003.51115691  .00000368  00000-0  40701-4 0  9992
2 32787  97.5413  33.5614 0012466 182.7294 177.3860 14.92873922525339
AAUSAT-II               
1 32788U 08021F   18003.82506045  .00000747  00000-0  74736-4 0  9990
2 32788  97.5386  37.0435 0012176 172.3910 187.7497 14.94175789525639
DELFI-C3 (DO-64)        
1 32789U 08021G   18003.58408381  .00001344  00000-0  97120-4 0  9994
2 32789  97.5348  62.4077 0013629 135.8544 224.3773 15.05643848526919
CANX-2                  
1 32790U 08021H   18003.45651276  .00000197  00000-0  27231-4 0  9996
2 32790  97.5535  21.7016 0012765 222.0575 137.9663 14.87750867524535
SEEDS II (CO-66)        
1 32791U 08021J   18003.86158415  .00000348  00000-0  41101-4 0  9999
2 32791  97.5475  28.7880 0012902 199.6498 160.4225 14.90436601525033
SWISSCUBE               
1 35932U 09051B   18003.38269850  .00000129  00000-0  40085-4 0  9993
2 35932  98.5210 150.8213 0007534   4.7336 355.3931 14.56106892439457
BEESAT                  
1 35933U 09051C   18003.83425864  .00000105  00000-0  34625-4 0  9990
2 35933  98.5249 152.7233 0006015  19.3387 340.8037 14.56216298439621
ITUPSAT 1               
1 35935U 09051E   18003.45277081  .00000073  00000-0  27831-4 0  9991
2 35935  98.5360 152.5880 0008197  11.7705 348.3682 14.55399731439369
TISAT 1                 
1 36799U 10035E   18003.33127020  .00000311  00000-0  37728-4 0  9999
2 36799  98.0839 135.4465 0012975  35.3353 324.8722 14.90657985405390
M-CUBED & EXP-1 PRIME   
1 37855U 11061F   18003.57709932  .00000369  00000-0  27482-4 0  9996
2 37855 101.7205 341.8989 0177880 209.1606 149.9582 15.03958672336436
HORYU 2                 
1 38340U 12025D   18003.49130861  .00000206  00000-0  38365-4 0  9999
2 38340  98.3749  19.4810 0011963  20.9627 339.2070 14.75477899292412
STRAND-1                
1 39090U 13009E   18003.48764698  .00000049  00000-0  32702-4 0  9999
2 39090  98.5342 211.8595 0010249  68.6574 291.5705 14.35005082254184
BRITE-AUSTRIA           
1 39091U 13009F   18003.49400138  .00000008  00000-0  18022-4 0  9991
2 39091  98.5308 211.1908 0011593  75.3945 284.8525 14.35055451254212
UNIBRITE                
1 39092U 13009G   18003.51087679  .00000019  00000-0  22103-4 0  9993
2 39092  98.5319 210.8808 0010444  69.6327 290.5980 14.34929913254192
AIST-2                  
1 39133U 13015D   18003.79821068  .00000120  00000-0  21129-4 0  9994
2 39133  64.8736  11.4874 0035069 248.4837 111.2543 15.04464311258471
SOMP                    
1 39134U 13015E   18003.20425036  .00001330  00000-0  72922-4 0  9997
2 39134  64.8643 300.4035 0029556 231.9435 127.9025 15.18687640259842
BEESAT-3                
1 39135U 13015F   18003.29024334  .00001209  00000-0  71650-4 0  9995
2 39135  64.8699 311.3792 0030466 256.1855 103.5880 15.16292704259257
BEESAT-2                
1 39136U 13015G   18003.46686480  .00001016  00000-0  62676-4 0  9995
2 39136  64.8705 313.1611 0031947 254.2879 105.4722 15.15779908259235
NEE-01 PEGASUS          
1 39151U 13018B   18003.52495796  .00000169  00000-0  29420-4 0  9998
2 39151  97.9798  98.7616 0018351 120.0768 240.2266 14.79835864253152
CUBEBUG-1 (CAPITAN BETO)
1 39153U 13018D   18003.72172170  .00000220  00000-0  35777-4 0  9990
2 39153  97.9827  99.9441 0018274 117.4970 242.8102 14.80318784253263
ESTCUBE 1               
1 39161U 13021C   18003.66637073  .00000166  00000-0  34298-4 0  9990
2 39161  98.0200  91.9747 0008482 216.9954 143.0668 14.72004596250245
POPACS 1                
1 39268U 13055D   18003.41425776  .00003021  00000-0  85711-4 0  9992
2 39268  81.0024 158.9418 0643001 351.6239   7.4591 14.32923479219376
POPACS 2                
1 39269U 13055E   18003.51408049  .00002633  00000-0  75783-4 0  9994
2 39269  81.0140 177.4737 0695783  39.7870 325.2243 14.21311135218524
POPACS 3                
1 39270U 13055F   18003.49330557  .00000959  00000-0  28397-4 0  9999
2 39270  81.0155 187.7894 0722236  70.6191 297.1573 14.14144152219073
ZACUBE-1 (TSHEPISOSAT)  
1 39417U 13066B   18003.51592699  .00000230  00000-0  35576-4 0  9993
2 39417  97.6064  40.7841 0058494 335.7708  24.0756 14.80853615222422
WNISAT-1                
1 39423U 13066H   18003.88971025 -.00000025  00000-0  44374-5 0  9994
2 39423  97.7049 340.8847 0175513 170.2696 190.1985 14.52911138218375
TRITON-1                
1 39427U 13066M   18003.51352338  .00000222  00000-0  43099-4 0  9998
2 39427  97.6363  10.4239 0115502  67.2832 294.0534 14.67591549220420
GOMX 1                  
1 39430U 13066Q   18003.71365125  .00000191  00000-0  43170-4 0  9997
2 39430  97.6799 352.6199 0152731 129.4590 232.0239 14.58999234219177
BRITE-PL                
1 39431U 13066R   18003.87722271  .00000039  00000-0  18737-4 0  9996
2 39431  97.7351 329.1245 0201711 214.3442 144.4577 14.46900415217468
HUMSAT-D                
1 39433U 13066T   18003.16887990  .00000594  00000-0  64115-4 0  9997
2 39433  97.6282  65.1281 0029572 271.8546  87.9286 14.91707686223825
EAGLE 2                 
1 39436U 13066W   18003.40243271  .00052832  00000-0  80459-3 0  9995
2 39436  97.7133 126.3272 0005576  73.9895 286.1971 15.54326890227541
CUBEBUG-2 (LO-74)       
1 39440U 13066AA  18003.50054718  .00000233  00000-0  39591-4 0  9997
2 39440  97.6118  28.4394 0080824  11.3629 348.9382 14.75591177220433
NEE-02 KRYSAOR          
1 39441U 13066AB  18003.48770553  .00000149  00000-0  28401-4 0  9991
2 39441  97.6108  26.8454 0082381  15.7537 344.6207 14.74719253220343
FUNCUBE-1 (AO-73)       
1 39444U 13066AE  18003.52976149  .00000278  00000-0  41007-4 0  9998
2 39444  97.6077  42.1110 0057545 331.6929  28.1160 14.81615084220684
UWE-3                   
1 39446U 13066AG  18003.53446960  .00000218  00000-0  35788-4 0  9997
2 39446  97.6078  34.2912 0070063 353.8804   6.1544 14.78124200220208
BRITE-TORONTO           
1 40020U 14033L   18003.64503757  .00000114  00000-0  27811-4 0  9995
2 40020  97.8067 230.0907 0088664  49.6160 311.2741 14.66458079189472
DUCHIFAT-1              
1 40021U 14033M   18003.55402273  .00000386  00000-0  45730-4 0  9998
2 40021  97.9175 281.9774 0013297   7.4925 352.6489 14.90158665192435
FLOCK 1C-10             
1 40023U 14033P   18003.40289065  .00001041  00000-0  11628-3 0  9993
2 40023  97.9194 280.6409 0013661  13.4528 346.7015 14.89081620192297
NANOSATC-BR1            
1 40024U 14033Q   18003.71635530  .00000404  00000-0  48398-4 0  9997
2 40024  97.9121 280.6932 0012582   8.7859 351.3576 14.89443904192396
QB50P1                  
1 40025U 14033R   18003.53651452  .00000269  00000-0  34905-4 0  9997
2 40025  97.9092 279.2407 0012868  13.0372 347.1175 14.88609205192295
FLOCK 1C-7              
1 40026U 14033S   18003.38785387  .00000958  00000-0  10560-3 0  9991
2 40026  97.9233 281.6234 0011768  10.8411 349.3037 14.89820972192350
FLOCK 1C-1              
1 40027U 14033T   18003.29537510  .00000160  00000-0  22936-4 0  9991
2 40027  97.9188 280.8198 0013550  10.9139 349.2372 14.89137313192293
POPSAT-HIP-1            
1 40028U 14033U   18003.72057990  .00000175  00000-0  24915-4 0  9994
2 40028  97.9126 279.7596 0014271  10.8982 349.2558 14.88468625192301
FLOCK 1C-2              
1 40029U 14033V   18003.32135157  .00001114  00000-0  12365-3 0  9992
2 40029  97.9207 280.6893 0014400   8.4587 351.6871 14.89189174192283
FLOCK 1C-4              
1 40031U 14033X   18003.56031014  .00000447  00000-0  53453-4 0  9990
2 40031  97.9186 280.8664 0015053   4.7572 355.3786 14.89005601192310
QB50P2                  
1 40032U 14033Y   18003.57668146  .00000292  00000-0  37760-4 0  9995
2 40032  97.9055 278.1816 0012158   8.5442 351.5979 14.88159142191721
FLOCK 1C-11             
1 40033U 14033Z   18003.42224894  .00000034  00000-0  93633-5 0  9994
2 40033  97.9228 282.6361 0012477 359.4452   0.6736 14.90401384192413
ANTELSAT                
1 40034U 14033AA  18003.50524322  .00000258  00000-0  45969-4 0  9999
2 40034  97.8331 245.9230 0059285   9.6996 350.5342 14.73840205190430
FLOCK 1C-9              
1 40035U 14033AB  18003.30320315  .00000406  00000-0  48883-4 0  9997
2 40035  97.9229 281.1250 0012138   1.2402 358.8841 14.89211731192292
FLOCK 1C-6              
1 40036U 14033AC  18003.57873387  .00000731  00000-0  82974-4 0  9999
2 40036  97.9256 281.6662 0012438   1.9179 358.2105 14.89319185192341
PERSEUS-M2              
1 40037U 14033AD  18003.34824707  .00000114  00000-0  19237-4 0  9994
2 40037  97.9059 275.9821 0014804  15.4449 344.7216 14.86310885191544
FLOCK 1C-5              
1 40038U 14033AE  18003.72326441  .00001020  00000-0  11354-3 0  9997
2 40038  97.9224 281.5732 0014363 359.0218   1.0971 14.89291341192353
PERSEUS-M1              
1 40039U 14033AF  18003.53335128  .00000127  00000-0  20895-4 0  9997
2 40039  97.9061 275.6243 0014545  11.3385 348.8155 14.85933270191512
FLOCK 1C-8              
1 40040U 14033AG  18003.31729311  .00000651  00000-0  71240-4 0  9998
2 40040  97.9280 283.9746 0012978 347.1748  12.9119 14.91246995192459
